 Automated mail xmit by MAIL_REQUEST, PID= 432 Mon Jul 31 11:18:15 2017
++++++++++++++++++++++++++++++++ (part 1 of 1)  +++++++++++++++++++++++++++++++

*******************************************************************************
 Revised: Jun 17, 2016            Tethys  / (Saturn)                        603
                          http://ssd.jpl.nasa.gov/?sat_phys_par
                            http://ssd.jpl.nasa.gov/?sat_elem

 SATELLITE PHYSICAL PROPERTIES:
  Mean Radius (km)       = 536.3  +- 1.5     Density (g/cm^3)  =  0.956+- 0.008
  Mass (10^19 kg)        =  61.76 +- 0.11    Geometric Albedo  =  0.80
  GM (km^3/s^2)          =  41.21 +- 0.007   V(1,0)            = +0.7

 SATELLITE ORBITAL DATA (mean values with respect to local Laplace plane):
  Semi-major axis, a (km)=  294.670(10^3)    Orbital period    =  1.888 d
  Eccentricity, e        =     0.0001        Rotational period = Synchronous
  Inclination, i  (deg)  =     1.091
*******************************************************************************
 
 
*******************************************************************************
Ephemeris / MAIL_REQUEST Mon Jul 31 11:18:14 2017 Pasadena, USA  / Horizons    
*******************************************************************************
Target body name: Tethys (603)                    {source: sat389}
Center body name: Solar System Barycenter (0)     {source: DE431mx}
Center-site name: BODY CENTER
*******************************************************************************
Start time      : A.D. 2017-Jul-10 00:00:00.0000 TDB
Stop  time      : A.D. 2020-Aug-13 00:00:00.0000 TDB
Step-size       : 1440 minutes
*******************************************************************************
Center geodetic : 0.00000000,0.00000000,0.0000000 {E-lon(deg),Lat(deg),Alt(km)}
Center cylindric: 0.00000000,0.00000000,0.0000000 {E-lon(deg),Dxy(km),Dz(km)}
Center radii    : (undefined)                                                  
Output units    : KM-S                                                         
Output type     : GEOMETRIC cartesian states
Output format   : 3 (position, velocity, LT, range, range-rate)
Reference frame : ICRF/J2000.0                                                 
Coordinate systm: Ecliptic and Mean Equinox of Reference Epoch                 
*******************************************************************************
            JDTDB,            Calendar Date (TDB),                      X,                      Y,                      Z,                     VX,                     VY,                     VZ,                     LT,                     RG,                     RR,
**************************************************************************************************************************************************************************************************************************************************************************
$$SOE
2458360.500000000, A.D. 2018-Aug-30 00:00:00.0000,  1.967800690363840E+08, -1.491288294098965E+09,  1.796983190302807E+07, -9.802157353238972E-01,  6.321710998866237E+00, -1.953109633865701E+00,  5.017879627933559E+03,  1.504322467606327E+09, -6.418489247538793E+00,
2458361.500000000, A.D. 2018-Aug-31 00:00:00.0000,  1.973420111124691E+08, -1.491650154620035E+09,  1.821388069873297E+07,  1.985767822426443E+01, -2.166136457788084E+00,  1.921316954304794E-01,  5.019331476610984E+03,  1.504757720889977E+09,  4.753835985328277E+00,
2458362.500000000, A.D. 2018-Sep-01 00:00:00.0000,  1.982385348582936E+08, -1.491041914941103E+09,  1.789849119719607E+07, -2.186990135054286E+00,  2.833101958049847E+00,  6.636997193382999E-02,  5.017700880543300E+03,  1.504268880486840E+09, -3.095611181566989E+00,
2458363.500000000, A.D. 2018-Sep-02 00:00:00.0000,  1.990129139460177E+08, -1.491451136926707E+09,  1.814372221355683E+07,  2.029851058588050E+01,  1.514315182999150E+00, -1.830853353688359E+00,  5.019404661221702E+03,  1.504779661084311E+09,  1.161578794325355E+00,
2458364.500000000, A.D. 2018-Sep-03 00:00:00.0000,  1.996927126316258E+08, -1.490829262359992E+09,  1.784665932474631E+07, -1.845062242189089E+00, -8.737016127238381E-01,  2.022437641947967E+00,  5.017637358443485E+03,  1.504249837040399E+09,  6.449648046584554E-01,
2458365.500000000, A.D. 2018-Sep-04 00:00:00.0000,  2.006805026804966E+08, -1.491214555907351E+09,  1.805465594860131E+07,  1.918783880574281E+01,  5.159880132333211E+00, -3.654010158252059E+00,  5.019357731409315E+03,  1.504765591880502E+09, -2.598301782364289E+00,
2458366.500000000, A.D. 2018-Sep-05 00:00:00.0000,  2.011575534400241E+08, -1.490649803708681E+09,  1.781230347833902E+07, -3.543887300798687E-03, -4.285938961390036E+00,  3.645203930761949E+00,  5.017693797955244E+03,  1.504266757180358E+09,  4.289831334540228E+00,
2458367.500000000, A.D. 2018-Sep-06 00:00:00.0000,  2.023301846970606E+08, -1.490943107965329E+09,  1.794984011594129E+07,  1.667828692777931E+01,  8.268112733081036E+00, -5.025186796099217E+00,  5.019193209536305E+03,  1.504716269463798E+09, -6.009748351763718E+00,
2458368.500000000, A.D. 2018-Sep-07 00:00:00.0000,  2.026463579727699E+08, -1.490498338900467E+09,  1.779106936891699E+07,  3.083370949378720E+00, -6.935361889006037E+00,  4.712797825579056E+00,  5.017858873596459E+03,  1.504316245612594E+09,  7.342754566175794E+00,
2458369.500000000, A.D. 2018-Sep-08 00:00:00.0000,  2.039498656299344E+08, -1.490644147213827E+09,  1.783464309999031E+07,  1.311410761655615E+01,  1.041167337392481E+01, -5.755132734941103E+00,  5.018930007757858E+03,  1.504637363555687E+09, -8.605475673561832E+00,
2458370.500000000, A.D. 2018-Sep-09 00:00:00.0000,  2.041691916945097E+08, -1.490365550755148E+09,  1.777677034692425E+07,  6.990301330986094E+00, -8.454127309295266E+00,  5.077469532849901E+00,  5.018106305460092E+03,  1.504390423819180E+09,  9.384003688291395E+00,
2458371.500000000, A.D. 2018-Sep-10 00:00:00.0000,  2.055314938764369E+08, -1.490328583329923E+09,  1.771586482347625E+07,  8.987396532706903E+00,  1.129584949599103E+01, -5.743250235708111E+00,  5.018600495102190E+03,  1.504538578146702E+09, -1.002904226281202E+01,
2458372.500000000, A.D. 2018-Sep-11 00:00:00.0000,  2.057313307077014E+08, -1.490239369814468E+09,  1.776230261382818E+07,  1.117842858347954E+01, -8.631585638768300E+00,  4.689268612946870E+00,  5.018398657285684E+03,  1.504478068691575E+09,  1.013386253740344E+01,
2458373.500000000, A.D. 2018-Sep-12 00:00:00.0000,  2.070722933487455E+08, -1.490009495710469E+09,  1.760085026807499E+07,  4.868584689789031E+00,  1.080012986862389E+01, -4.991731536521662E+00,  5.018246517754515E+03,  1.504432458407566E+09, -1.008487000971176E+01,
2458374.500000000, A.D. 2018-Sep-13 00:00:00.0000,  2.073327556674355E+08, -1.490106670576072E+09,  1.774061832750463E+07,  1.507279768783184E+01, -7.442767889694022E+00,  3.602294981632689E+00,  5.018692676719339E+03,  1.504566213500290E+09,  9.490781842940711E+00,
2458375.500000000, A.D. 2018-Sep-14 00:00:00.0000,  2.085751938210607E+08, -1.489700119140547E+09,  1.749635955078506E+07,  1.324487031661675E+00,  8.993021760088968E+00, -3.603912665713418E+00,  5.017912990937321E+03,  1.504332469583231E+09, -8.763824531113917E+00,
2458376.500000000, A.D. 2018-Sep-15 00:00:00.0000,  2.089680040287696E+08, -1.489954884075975E+09,  1.770561232529885E+07,  1.813591858003221E+01, -5.049049615684095E+00,  1.966300549068516E+00,  5.018944502084426E+03,  1.504641708845476E+09,  7.541660802206465E+00,
2458377.500000000, A.D. 2018-Sep-16 00:00:00.0000,  2.100482933810377E+08, -1.489412165031096E+09,  1.740772647419786E+07, -1.155408689838078E+00,  6.126025814767712E+00, -1.772252009612670E+00,  5.017642169924808E+03,  1.504251279486212E+09, -6.247440172830846E+00,
2458378.500000000, A.D. 2018-Sep-17 00:00:00.0000,  2.106269622629381E+08, -1.489773850110643E+09,  1.765302176459914E+07,  1.994491128222290E+01, -1.777989865716318E+00,  6.750963336256577E-03,  5.019116086014625E+03,  1.504693148413664E+09,  4.552328869051173E+00,
2458379.500000000, A.D. 2018-Sep-18 00:00:00.0000,  2.115038938387066E+08, -1.489154076812360E+09,  1.733803940229344E+07, -2.230286530430988E+00,  2.598353770868504E+00,  2.490259451279320E-01,  5.017467493392373E+03,  1.504198912779198E+09, -2.883093278395119E+00,
2458380.500000000, A.D. 2018-Sep-19 00:00:00.0000,  2.122962490353021E+08, -1.489557044560327E+09,  1.758092472436899E+07,  2.025085636386815E+01,  1.922392156999720E+00, -2.006724345843939E+00,  5.019179824180594E+03,  1.504712256635108E+09,  9.306682989345668E-01,
2458381.500000000, A.D. 2018-Sep-20 00:00:00.0000,  2.129564589241280E+08, -1.488929788230541E+09,  1.728770896324277E+07, -1.752898156867770E+00, -1.105139239248541E+00,  2.182517323618414E+00,  5.017408576378302E+03,  1.504181249902732E+09,  8.708488245688853E-01,
2458382.500000000, A.D. 2018-Sep-21 00:00:00.0000,  2.139608385132479E+08, -1.489302640207346E+09,  1.749011023095918E+07,  1.900999987603936E+01,  5.542715586243075E+00, -3.795838372887621E+00,  5.019122767097250E+03,  1.504695151351846E+09, -2.827001250475978E+00,
2458383.500000000, A.D. 2018-Sep-22 00:00:00.0000,  2.144208582758622E+08, -1.488738447756663E+09,  1.725453040718400E+07,  2.105506287258390E-01, -4.471867078356511E+00,  3.761167961833575E+00,  5.017469511261196E+03,  1.504199517721053E+09,  4.499060135683075E+00,
2458384.500000000, A.D. 2018-Sep-23 00:00:00.0000,  2.156063257880628E+08, -1.489013810818327E+09,  1.738397485280353E+07,  1.639230704259010E+01,  8.584412138734436E+00, -5.113326826732717E+00,  5.018948655569707E+03,  1.504642954029038E+09, -6.205401128325977E+00,
2458385.500000000, A.D. 2018-Sep-24 00:00:00.0000,  2.159102725765030E+08, -1.488574382977799E+09,  1.723391014113361E+07,  3.386429334212999E+00, -7.036160627274483E+00,  4.767548353333938E+00,  5.017637774092515E+03,  1.504249961648844E+09,  7.503524768205092E+00,
